{
  "type": "FeatureCollection",
  "features": [
    {
      "type": "Feature",
      "properties": {
        "norad_id": 35773,
        "name": "COSMOS 2251 DEB",
        "group": "cosmos-2251-debris",
        "lat": -44.76853879665839,
        "lon": -58.65295799339503,
        "alt_km": 722.9158323364,
        "timestamp": "2025-12-24T16:52:41.934247+00:00",
        "meta_object_name": "COSMOS 2251 DEB",
        "meta_object_id": "1993-036ART",
        "meta_epoch": "2025-12-23T21:23:21.545376",
        "meta_mean_motion": 14.62127743,
        "meta_eccentricity": 0.004519,
        "meta_inclination": 74.0086,
        "meta_ra_of_asc_node": 319.4307,
        "meta_arg_of_pericenter": 116.1702,
        "meta_mean_anomaly": 244.4123,
        "meta_ephemeris_type": 0,
        "meta_classification_type": "U",
        "meta_norad_cat_id": 35773,
        "meta_element_set_no": 999,
        "meta_rev_at_epoch": 87002,
        "meta_bstar": 0.00061789,
        "meta_mean_motion_dot": 3.123e-05,
        "meta_mean_motion_ddot": 0,
        "tle_line1": "1 35773U 93036ART 25357.89122159  .00003123  00000+0  61789-3 0  9997",
        "tle_line2": "2 35773  74.0086 319.4307 0045190 116.1702 244.4123 14.62127743870020"
      },
      "geometry": {
        "type": "Point",
        "coordinates": [
          -58.65295799339503,
          -44.76853879665839
        ]
      }
    },
    {
      "type": "Feature",
      "properties": {
        "norad_id": 35777,
        "name": "COSMOS 2251 DEB",
        "group": "cosmos-2251-debris",
        "lat": -35.53450279910601,
        "lon": -68.38116891184765,
        "alt_km": 1299.37857672252,
        "timestamp": "2025-12-24T16:52:41.934257+00:00",
        "meta_object_name": "COSMOS 2251 DEB",
        "meta_object_id": "1993-036ARX",
        "meta_epoch": "2025-12-24T02:52:05.830752",
        "meta_mean_motion": 13.41307333,
        "meta_eccentricity": 0.04517541,
        "meta_inclination": 73.7707,
        "meta_ra_of_asc_node": 304.5571,
        "meta_arg_of_pericenter": 197.7211,
        "meta_mean_anomaly": 183.1079,
        "meta_ephemeris_type": 0,
        "meta_classification_type": "U",
        "meta_norad_cat_id": 35777,
        "meta_element_set_no": 999,
        "meta_rev_at_epoch": 79837,
        "meta_bstar": 0.00020757676,
        "meta_mean_motion_dot": 1.88e-06,
        "meta_mean_motion_ddot": 0,
        "tle_line1": "1 35777U 93036ARX 25358.11951193  .00000188  00000+0  20758-3 0  9994",
        "tle_line2": "2 35777  73.7707 304.5571 0451754 197.7211 183.1079 13.41307333798372"
      },
      "geometry": {
        "type": "Point",
        "coordinates": [
          -68.38116891184765,
          -35.53450279910601
        ]
      }
    },
    {
      "type": "Feature",
      "properties": {
        "norad_id": 35784,
        "name": "COSMOS 2251 DEB",
        "group": "cosmos-2251-debris",
        "lat": 9.113705024650628,
        "lon": -115.38045270838869,
        "alt_km": 700.0418638419005,
        "timestamp": "2025-12-24T16:52:41.934269+00:00",
        "meta_object_name": "COSMOS 2251 DEB",
        "meta_object_id": "1993-036ASE",
        "meta_epoch": "2025-12-17T23:28:57.859680",
        "meta_mean_motion": 14.50055355,
        "meta_eccentricity": 0.00415956,
        "meta_inclination": 74.0403,
        "meta_ra_of_asc_node": 79.8718,
        "meta_arg_of_pericenter": 209.9484,
        "meta_mean_anomaly": 149.9297,
        "meta_ephemeris_type": 0,
        "meta_classification_type": "U",
        "meta_norad_cat_id": 35784,
        "meta_element_set_no": 999,
        "meta_rev_at_epoch": 65782,
        "meta_bstar": 0.00024795111,
        "meta_mean_motion_dot": 9.44e-06,
        "meta_mean_motion_ddot": 0,
        "tle_line1": "1 35784U 93036ASE 25351.97844745  .00000944  00000+0  24795-3 0  9998",
        "tle_line2": "2 35784  74.0403  79.8718 0041595 209.9484 149.9297 14.50055355657829"
      },
      "geometry": {
        "type": "Point",
        "coordinates": [
          -115.38045270838869,
          9.113705024650628
        ]
      }
    },
    {
      "type": "Feature",
      "properties": {
        "norad_id": 35786,
        "name": "COSMOS 2251 DEB",
        "group": "cosmos-2251-debris",
        "lat": 62.18936673957405,
        "lon": 53.60227153654578,
        "alt_km": 662.4672313457031,
        "timestamp": "2025-12-24T16:52:41.934280+00:00",
        "meta_object_name": "COSMOS 2251 DEB",
        "meta_object_id": "1993-036ASG",
        "meta_epoch": "2025-12-21T19:48:04.443552",
        "meta_mean_motion": 14.66307498,
        "meta_eccentricity": 0.00333198,
        "meta_inclination": 74.0136,
        "meta_ra_of_asc_node": 26.2337,
        "meta_arg_of_pericenter": 153.7976,
        "meta_mean_anomaly": 206.4889,
        "meta_ephemeris_type": 0,
        "meta_classification_type": "U",
        "meta_norad_cat_id": 35786,
        "meta_element_set_no": 999,
        "meta_rev_at_epoch": 73541,
        "meta_bstar": 0.0006728661,
        "meta_mean_motion_dot": 3.713e-05,
        "meta_mean_motion_ddot": 0,
        "tle_line1": "1 35786U 93036ASG 25355.82505143  .00003713  00000+0  67287-3 0  9994",
        "tle_line2": "2 35786  74.0136  26.2337 0033319 153.7976 206.4889 14.66307498735417"
      },
      "geometry": {
        "type": "Point",
        "coordinates": [
          53.60227153654578,
          62.18936673957405
        ]
      }
    },
    {
      "type": "Feature",
      "properties": {
        "norad_id": 35789,
        "name": "COSMOS 2251 DEB",
        "group": "cosmos-2251-debris",
        "lat": -69.07234031431814,
        "lon": 130.86285747924865,
        "alt_km": 786.0026090792508,
        "timestamp": "2025-12-24T16:52:41.934290+00:00",
        "meta_object_name": "COSMOS 2251 DEB",
        "meta_object_id": "1993-036ASK",
        "meta_epoch": "2025-12-23T17:57:01.258272",
        "meta_mean_motion": 14.35994084,
        "meta_eccentricity": 0.00477964,
        "meta_inclination": 74.0387,
        "meta_ra_of_asc_node": 264.1639,
        "meta_arg_of_pericenter": 0.8872,
        "meta_mean_anomaly": 359.2357,
        "meta_ephemeris_type": 0,
        "meta_classification_type": "U",
        "meta_norad_cat_id": 35789,
        "meta_element_set_no": 999,
        "meta_rev_at_epoch": 61385,
        "meta_bstar": 0.00011515558,
        "meta_mean_motion_dot": 3.13e-06,
        "meta_mean_motion_ddot": 0,
        "tle_line1": "1 35789U 93036ASK 25357.74793123  .00000313  00000+0  11516-3 0  9994",
        "tle_line2": "2 35789  74.0387 264.1639 0047796   0.8872 359.2357 14.35994084613856"
      },
      "geometry": {
        "type": "Point",
        "coordinates": [
          130.86285747924865,
          -69.07234031431814
        ]
      }
    },
    {
      "type": "Feature",
      "properties": {
        "norad_id": 35793,
        "name": "COSMOS 2251 DEB",
        "group": "cosmos-2251-debris",
        "lat": -7.676051829449995,
        "lon": 34.45988707159669,
        "alt_km": 636.0142766122508,
        "timestamp": "2025-12-24T16:52:41.934301+00:00",
        "meta_object_name": "COSMOS 2251 DEB",
        "meta_object_id": "1993-036ASP",
        "meta_epoch": "2025-12-22T19:59:17.179008",
        "meta_mean_motion": 14.78898886,
        "meta_eccentricity": 0.00021779,
        "meta_inclination": 74.0403,
        "meta_ra_of_asc_node": 40.3457,
        "meta_arg_of_pericenter": 77.0765,
        "meta_mean_anomaly": 40.8773,
        "meta_ephemeris_type": 0,
        "meta_classification_type": "U",
        "meta_norad_cat_id": 35793,
        "meta_element_set_no": 999,
        "meta_rev_at_epoch": 65946,
        "meta_bstar": 0.0016902624,
        "meta_mean_motion_dot": 0.0001245,
        "meta_mean_motion_ddot": 0,
        "tle_line1": "1 35793U 93036ASP 25356.83283772  .00012450  00000+0  16903-2 0  9991",
        "tle_line2": "2 35793  74.0403  40.3457 0002177  77.0765  40.8773 14.78898886659465"
      },
      "geometry": {
        "type": "Point",
        "coordinates": [
          34.45988707159669,
          -7.676051829449995
        ]
      }
    },
    {
      "type": "Feature",
      "properties": {
        "norad_id": 35824,
        "name": "COSMOS 2251 DEB",
        "group": "cosmos-2251-debris",
        "lat": 72.2186290890125,
        "lon": 92.88551854246147,
        "alt_km": 768.3449588010772,
        "timestamp": "2025-12-24T16:52:41.934311+00:00",
        "meta_object_name": "COSMOS 2251 DEB",
        "meta_object_id": "1993-036ASW",
        "meta_epoch": "2025-12-22T19:31:45.102144",
        "meta_mean_motion": 13.88451582,
        "meta_eccentricity": 0.02474981,
        "meta_inclination": 73.8455,
        "meta_ra_of_asc_node": 31.474,
        "meta_arg_of_pericenter": 115.7236,
        "meta_mean_anomaly": 246.9666,
        "meta_ephemeris_type": 0,
        "meta_classification_type": "U",
        "meta_norad_cat_id": 35824,
        "meta_element_set_no": 999,
        "meta_rev_at_epoch": 84367,
        "meta_bstar": 0.00094378544,
        "meta_mean_motion_dot": 1.423e-05,
        "meta_mean_motion_ddot": 0,
        "tle_line1": "1 35824U 93036ASW 25356.81371646  .00001423  00000+0  94379-3 0  9994",
        "tle_line2": "2 35824  73.8455  31.4740 0247498 115.7236 246.9666 13.88451582843676"
      },
      "geometry": {
        "type": "Point",
        "coordinates": [
          92.88551854246147,
          72.2186290890125
        ]
      }
    }
  ]
}